{"type":"FeatureCollection","features":[{"type":"Feature","properties":{"ref":"I 75","name":"Interstate 75 (northbound carriageway, Atlanta \u2192 Chattanooga)","source":"\u00a9 OpenStreetMap contributors, ODbL 1.0","extracted":"2026-09-15","simplifyToleranceDeg":0.0003},"geometry":{"type":"LineString","coordinates":[[-84.28391,33.54906],[-84.29386,33.55296],[-84.30745,33.55753],[-84.3202,33.56504],[-84.3338,33.57408],[-84.33673,33.57551],[-84.3668,33.5823],[-84.38147,33.58663],[-84.38341,33.58835],[-84.3952,33.60744],[-84.39951,33.62205],[-84.40114,33.63586],[-84.40077,33.63848],[-84.3951,33.65514],[-84.39475,33.66013],[-84.39758,33.66913],[-84.39748,33.67506],[-84.39881,33.68669],[-84.40419,33.69441],[-84.40471,33.69663],[-84.40348,33.70552],[-84.40166,33.71067],[-84.39384,33.72365],[-84.39329,33.7276],[-84.39203,33.73158],[-84.39122,33.74314],[-84.38947,33.74534],[-84.3865,33.74751],[-84.38294,33.74914],[-84.37964,33.75193],[-84.37838,33.75437],[-84.37843,33.75786],[-84.37982,33.76077],[-84.3852,33.76539],[-84.38872,33.76748],[-84.38993,33.76923],[-84.39008,33.77417],[-84.39086,33.77875],[-84.39076,33.79264],[-84.3912,33.79451],[-84.39472,33.79705],[-84.39759,33.80048],[-84.40571,33.80237],[-84.4119,33.8047],[-84.41645,33.80746],[-84.41905,33.81071],[-84.42153,33.81592],[-84.42508,33.82894],[-84.42957,33.83871],[-84.42971,33.84461],[-84.43076,33.84874],[-84.43098,33.85218],[-84.43219,33.85605],[-84.43368,33.8585],[-84.44104,33.86689],[-84.4448,33.87279],[-84.45412,33.88233],[-84.46367,33.89418],[-84.47064,33.89915],[-84.47321,33.90173],[-84.48909,33.92964],[-84.49098,33.93204],[-84.49384,33.9345],[-84.51469,33.94775],[-84.51614,33.95041],[-84.51657,33.9572],[-84.51815,33.96002],[-84.54491,33.98741],[-84.55673,33.99439],[-84.56018,33.99731],[-84.56705,34.0089],[-84.57032,34.02164],[-84.5758,34.03004],[-84.57942,34.04149],[-84.58221,34.04533],[-84.58745,34.05011],[-84.60393,34.06031],[-84.61289,34.07011],[-84.62619,34.08029],[-84.62906,34.08169],[-84.63235,34.08199],[-84.64332,34.07956],[-84.64721,34.07917],[-84.67357,34.08047],[-84.67877,34.08163],[-84.69495,34.08803],[-84.70024,34.08861],[-84.71859,34.08837],[-84.72167,34.08922],[-84.72382,34.09085],[-84.72513,34.0934],[-84.72676,34.10382],[-84.7281,34.10757],[-84.73105,34.11141],[-84.73813,34.11705],[-84.74015,34.12076],[-84.74026,34.12494],[-84.73702,34.13593],[-84.73702,34.13831],[-84.73775,34.14084],[-84.7391,34.14303],[-84.75635,34.16328],[-84.75769,34.16646],[-84.75993,34.17783],[-84.76155,34.18072],[-84.76564,34.18561],[-84.76664,34.18809],[-84.76669,34.19031],[-84.76613,34.19205],[-84.76277,34.19719],[-84.76173,34.19972],[-84.76136,34.20739],[-84.76081,34.20926],[-84.75916,34.21141],[-84.75384,34.21569],[-84.75255,34.21798],[-84.75203,34.22655],[-84.75251,34.22904],[-84.7541,34.23235],[-84.75726,34.23578],[-84.76475,34.24168],[-84.78095,34.24852],[-84.78737,34.2533],[-84.79926,34.25981],[-84.81882,34.28188],[-84.82014,34.28465],[-84.82231,34.29338],[-84.82427,34.29654],[-84.85675,34.3291],[-84.87046,34.34012],[-84.88833,34.3575],[-84.89459,34.36112],[-84.89762,34.36357],[-84.90714,34.37298],[-84.91643,34.38369],[-84.91891,34.39286],[-84.91901,34.40851],[-84.91778,34.4152],[-84.91953,34.42096],[-84.92024,34.42729],[-84.91875,34.47819],[-84.92085,34.49441],[-84.9184,34.50946],[-84.92016,34.53768],[-84.92104,34.54031],[-84.92307,34.54359],[-84.93892,34.56015],[-84.95017,34.57683],[-84.95158,34.5801],[-84.95564,34.59807],[-84.95754,34.60313],[-84.96543,34.6182],[-84.97644,34.63451],[-84.98623,34.65952],[-84.98857,34.66269],[-84.9958,34.66952],[-84.99758,34.67295],[-85.00617,34.70251],[-85.00718,34.70894],[-85.00667,34.72634],[-85.00221,34.73934],[-85.00262,34.7469],[-85.00036,34.78356],[-85.00063,34.79198],[-85.00201,34.796],[-85.00372,34.79801],[-85.01445,34.80495],[-85.01592,34.80661],[-85.01672,34.80841],[-85.01737,34.85241],[-85.01855,34.85583],[-85.02074,34.85803],[-85.03114,34.86437],[-85.04999,34.88002],[-85.08003,34.89536],[-85.08207,34.89678],[-85.08674,34.90159],[-85.08922,34.9032],[-85.10738,34.90878],[-85.12099,34.90921],[-85.1382,34.91264],[-85.14159,34.91392],[-85.14411,34.91552],[-85.14697,34.91862],[-85.15595,34.93492],[-85.15898,34.93734],[-85.16894,34.94228],[-85.17138,34.94415],[-85.18411,34.96218],[-85.19221,34.96904],[-85.19654,34.97545],[-85.20322,34.98926],[-85.21143,35.00147],[-85.21143,35.00355],[-85.20943,35.00547],[-85.1848,35.01241],[-85.18162,35.01413],[-85.17895,35.01687],[-85.17136,35.02843],[-85.15285,35.04519],[-85.14812,35.04879],[-85.13225,35.05833],[-85.12967,35.06053],[-85.12421,35.06666],[-85.11627,35.07167],[-85.11201,35.07368],[-85.1064,35.07549],[-85.07477,35.08371],[-85.06573,35.08701],[-85.06159,35.0892],[-85.0582,35.09222],[-85.05637,35.09487],[-85.046,35.11681],[-85.04245,35.12207],[-85.03919,35.12495],[-85.03603,35.12633],[-85.03231,35.12697],[-85.01805,35.12706],[-85.00588,35.13007],[-85.00123,35.13208],[-84.99207,35.13864],[-84.98717,35.14133],[-84.95314,35.14949],[-84.95045,35.15048],[-84.93942,35.15731],[-84.90678,35.1845],[-84.88055,35.19688],[-84.87751,35.1988],[-84.87502,35.20109],[-84.86672,35.21239]]}}]}